start=new Date('2023-03-01T00:00:00.000Z').valueOf();
sats=[{"EPOCH":"2023-02-28T20:44:37.904640","NORAD_CAT_ID":"52373","OBJECT_ID":"2022-045AU","COUNTRY_CODE":"US","PERIOD":"95.439","SITE":"AFETR","GP_ID":"227275538","OBJECT_TYPE":"PAYLOAD","INCLINATION":"53.2168","MEAN_ELEMENT_THEORY":"SGP4","REF_FRAME":"TEME","RA_OF_ASC_NODE":"108.8763","TLE_LINE1":"1 52373U 22045AU  23059.86432760 -.00022425  00000-0 -13963-2 0  9999","DECAY_DATE":null,"OBJECT_NAME":"STARLINK-3550","REV_AT_EPOCH":"4913","LAUNCH_DATE":"2022-04-29","TIME_SYSTEM":"UTC","MEAN_MOTION_DOT":"-0.00022425","MEAN_MOTION":"15.08814062","SEMIMAJOR_AXIS":"6917.960","TLE_LINE2":"2 52373  53.2168 108.8763 0000674  72.8464 287.2602 15.08814062 49137","ELEMENT_SET_NO":"999","RCS_SIZE":"LARGE","CENTER_NAME":"EARTH","ARG_OF_PERICENTER":"72.8464","MEAN_MOTION_DDOT":"0.0000000000000","APOAPSIS":"540.291","CLASSIFICATION_TYPE":"U","PERIAPSIS":"539.358","ECCENTRICITY":"0.00006740","MEAN_ANOMALY":"287.2602","FILE":"3847858","EPHEMERIS_TYPE":"0","BSTAR":"-0.00139630000000"},{"EPHEMERIS_TYPE":"0","BSTAR":"-0.00007623500000","ECCENTRICITY":"0.00016130","MEAN_ANOMALY":"283.7477","FILE":"3847864","ARG_OF_PERICENTER":"76.3694","MEAN_MOTION_DDOT":"0.0000000000000","APOAPSIS":"540.907","CLASSIFICATION_TYPE":"U","PERIAPSIS":"538.676","CENTER_NAME":"EARTH","RCS_SIZE":"LARGE","MEAN_MOTION":"15.08824894","SEMIMAJOR_AXIS":"6917.927","TLE_LINE2":"2 52374  53.2173 108.8593 0001613  76.3694 283.7477 15.08824894 49138","ELEMENT_SET_NO":"999","TLE_LINE1":"1 52374U 22045AV  23059.86801440 -.00001501  00000-0 -76235-4 0  9990","OBJECT_NAME":"STARLINK-3762","DECAY_DATE":null,"REV_AT_EPOCH":"4913","LAUNCH_DATE":"2022-04-29","TIME_SYSTEM":"UTC","MEAN_MOTION_DOT":"-0.00001501","PERIOD":"95.439","SITE":"AFETR","GP_ID":"227276053","OBJECT_TYPE":"PAYLOAD","INCLINATION":"53.2173","REF_FRAME":"TEME","MEAN_ELEMENT_THEORY":"SGP4","RA_OF_ASC_NODE":"108.8593","EPOCH":"2023-02-28T20:49:56.444160","NORAD_CAT_ID":"52374","OBJECT_ID":"2022-045AV","COUNTRY_CODE":"US"},{"TLE_LINE1":"1 52375U 22045AW  23059.87167981 -.00018655  00000-0 -11575-2 0  9999","DECAY_DATE":null,"OBJECT_NAME":"STARLINK-3785","REV_AT_EPOCH":"4913","MEAN_MOTION_DOT":"-0.00018655","TIME_SYSTEM":"UTC","LAUNCH_DATE":"2022-04-29","MEAN_MOTION":"15.08826122","SEMIMAJOR_AXIS":"6917.923","TLE_LINE2":"2 52375  53.2158 108.8391 0001330 124.2119 235.8999 15.08826122 49132","ELEMENT_SET_NO":"999","EPOCH":"2023-02-28T20:55:13.135584","NORAD_CAT_ID":"52375","COUNTRY_CODE":"US","OBJECT_ID":"2022-045AW","SITE":"AFETR","PERIOD":"95.438","GP_ID":"227275560","OBJECT_TYPE":"PAYLOAD","REF_FRAME":"TEME","MEAN_ELEMENT_THEORY":"SGP4","INCLINATION":"53.2158","RA_OF_ASC_NODE":"108.8391","ECCENTRICITY":"0.00013300","MEAN_ANOMALY":"235.8999","FILE":"3847864","EPHEMERIS_TYPE":"0","BSTAR":"-0.00115750000000","RCS_SIZE":"LARGE","CENTER_NAME":"EARTH","MEAN_MOTION_DDOT":"0.0000000000000","ARG_OF_PERICENTER":"124.2119","APOAPSIS":"540.708","CLASSIFICATION_TYPE":"U","PERIAPSIS":"538.868"},{"INCLINATION":"53.2168","REF_FRAME":"TEME","MEAN_ELEMENT_THEORY":"SGP4","RA_OF_ASC_NODE":"108.8922","PERIOD":"95.437","SITE":"AFETR","GP_ID":"227276132","OBJECT_TYPE":"PAYLOAD","NORAD_CAT_ID":"52376","OBJECT_ID":"2022-045AX","COUNTRY_CODE":"US","EPOCH":"2023-02-28T20:39:19.135296","TLE_LINE2":"2 52376  53.2168 108.8922 0001323  79.4358 280.6783 15.08854622 49137","ELEMENT_SET_NO":"999","MEAN_MOTION":"15.08854622","SEMIMAJOR_AXIS":"6917.836","LAUNCH_DATE":"2022-04-29","TIME_SYSTEM":"UTC","MEAN_MOTION_DOT":"0.00006505","TLE_LINE1":"1 52376U 22045AX  23059.86063814  .00006505  00000-0  42627-3 0  9991","OBJECT_NAME":"STARLINK-3767","DECAY_DATE":null,"REV_AT_EPOCH":"4913","CLASSIFICATION_TYPE":"U","PERIAPSIS":"538.785","ARG_OF_PERICENTER":"79.4358","MEAN_MOTION_DDOT":"0.0000000000000","APOAPSIS":"540.616","CENTER_NAME":"EARTH","RCS_SIZE":"LARGE","EPHEMERIS_TYPE":"0","BSTAR":"0.00042627000000","MEAN_ANOMALY":"280.6783","FILE":"3847888","ECCENTRICITY":"0.00013230"},{"EPHEMERIS_TYPE":"0","BSTAR":"-0.00031137000000","MEAN_ANOMALY":"233.7951","FILE":"3847864","ECCENTRICITY":"0.00012050","CLASSIFICATION_TYPE":"U","PERIAPSIS":"543.926","MEAN_MOTION_DDOT":"0.0000000000000","ARG_OF_PERICENTER":"126.3152","APOAPSIS":"545.594","CENTER_NAME":"EARTH","RCS_SIZE":"LARGE","TLE_LINE2":"2 52377  53.2149 108.9394 0001205 126.3152 233.7951 15.07200826 49129","ELEMENT_SET_NO":"999","MEAN_MOTION":"15.07200826","SEMIMAJOR_AXIS":"6922.895","TIME_SYSTEM":"UTC","MEAN_MOTION_DOT":"-0.00005019","LAUNCH_DATE":"2022-04-29","TLE_LINE1":"1 52377U 22045AY  23059.87094519 -.00005019  00000-0 -31137-3 0  9994","DECAY_DATE":null,"OBJECT_NAME":"STARLINK-3805","REV_AT_EPOCH":"4912","REF_FRAME":"TEME","MEAN_ELEMENT_THEORY":"SGP4","INCLINATION":"53.2149","RA_OF_ASC_NODE":"108.9394","SITE":"AFETR","PERIOD":"95.541","GP_ID":"227276052","OBJECT_TYPE":"PAYLOAD","NORAD_CAT_ID":"52377","COUNTRY_CODE":"US","OBJECT_ID":"2022-045AY","EPOCH":"2023-02-28T20:54:09.664416"},{"MEAN_MOTION_DOT":"-0.00012781","TIME_SYSTEM":"UTC","LAUNCH_DATE":"2022-04-29","DECAY_DATE":null,"REV_AT_EPOCH":"4913","OBJECT_NAME":"STARLINK-3806","TLE_LINE1":"1 52378U 22045AZ  23059.85329713 -.00012781  00000-0 -78682-3 0  9990","ELEMENT_SET_NO":"999","TLE_LINE2":"2 52378  53.2146 108.9249 0001084 122.9380 237.1717 15.08819173 49137","SEMIMAJOR_AXIS":"6917.944","MEAN_MOTION":"15.08819173","COUNTRY_CODE":"US","OBJECT_ID":"2022-045AZ","NORAD_CAT_ID":"52378","EPOCH":"2023-02-28T20:28:44.872032","RA_OF_ASC_NODE":"108.9249","MEAN_ELEMENT_THEORY":"SGP4","REF_FRAME":"TEME","INCLINATION":"53.2146","GP_ID":"227276060","OBJECT_TYPE":"PAYLOAD","SITE":"AFETR","PERIOD":"95.439","FILE":"3847864","MEAN_ANOMALY":"237.1717","ECCENTRICITY":"0.00010840","BSTAR":"-0.00078682000000","EPHEMERIS_TYPE":"0","CENTER_NAME":"EARTH","RCS_SIZE":"LARGE","PERIAPSIS":"539.059","CLASSIFICATION_TYPE":"U","APOAPSIS":"540.559","MEAN_MOTION_DDOT":"0.0000000000000","ARG_OF_PERICENTER":"122.9380"},{"OBJECT_NAME":"STARLINK-3800","DECAY_DATE":null,"REV_AT_EPOCH":"4913","TLE_LINE1":"1 52379U 22045BA  23059.85696088 -.00035876  00000-0 -22489-2 0  9996","MEAN_MOTION_DOT":"-0.00035876","TIME_SYSTEM":"UTC","LAUNCH_DATE":"2022-04-29","SEMIMAJOR_AXIS":"6917.957","MEAN_MOTION":"15.08814993","ELEMENT_SET_NO":"999","TLE_LINE2":"2 52379  53.2140 108.9093 0001095 138.4401 221.6675 15.08814993 49133","EPOCH":"2023-02-28T20:34:01.420032","COUNTRY_CODE":"US","OBJECT_ID":"2022-045BA","NORAD_CAT_ID":"52379","OBJECT_TYPE":"PAYLOAD","GP_ID":"227276059","SITE":"AFETR","PERIOD":"95.439","RA_OF_ASC_NODE":"108.9093","REF_FRAME":"TEME","MEAN_ELEMENT_THEORY":"SGP4","INCLINATION":"53.2140","ECCENTRICITY":"0.00010950","FILE":"3847864","MEAN_ANOMALY":"221.6675","BSTAR":"-0.00224890000000","EPHEMERIS_TYPE":"0","CENTER_NAME":"EARTH","RCS_SIZE":"LARGE","APOAPSIS":"540.579","MEAN_MOTION_DDOT":"0.0000000000000","ARG_OF_PERICENTER":"138.4401","PERIAPSIS":"539.064","CLASSIFICATION_TYPE":"U"},{"MEAN_ANOMALY":"262.0132","FILE":"3847864","ECCENTRICITY":"0.00012000","EPHEMERIS_TYPE":"0","BSTAR":"-0.00032801000000","CENTER_NAME":"EARTH","RCS_SIZE":"LARGE","CLASSIFICATION_TYPE":"U","PERIAPSIS":"538.932","MEAN_MOTION_DDOT":"0.0000000000000","ARG_OF_PERICENTER":"98.0996","APOAPSIS":"540.593","MEAN_MOTION_DOT":"-0.00005503","TIME_SYSTEM":"UTC","LAUNCH_DATE":"2022-04-29","TLE_LINE1":"1 52380U 22045BB  23059.83580905 -.00005503  00000-0 -32801-3 0  9990","REV_AT_EPOCH":"4926","DECAY_DATE":null,"OBJECT_NAME":"STARLINK-3793","TLE_LINE2":"2 52380  53.2170  99.0307 0001200  98.0996 262.0132 15.08834369 49264","ELEMENT_SET_NO":"999","MEAN_MOTION":"15.08834369","SEMIMAJOR_AXIS":"6917.898","NORAD_CAT_ID":"52380","COUNTRY_CODE":"US","OBJECT_ID":"2022-045BB","EPOCH":"2023-02-28T20:03:33.901920","MEAN_ELEMENT_THEORY":"SGP4","REF_FRAME":"TEME","INCLINATION":"53.2170","RA_OF_ASC_NODE":"99.0307","SITE":"AFETR","PERIOD":"95.438","GP_ID":"227276058","OBJECT_TYPE":"PAYLOAD"},{"RCS_SIZE":"LARGE","CENTER_NAME":"EARTH","ARG_OF_PERICENTER":"77.0279","MEAN_MOTION_DDOT":"0.0000000000000","APOAPSIS":"540.664","CLASSIFICATION_TYPE":"U","PERIAPSIS":"539.027","ECCENTRICITY":"0.00011830","MEAN_ANOMALY":"283.0845","FILE":"3847859","EPHEMERIS_TYPE":"0","BSTAR":"-0.00147320000000","EPOCH":"2023-02-28T20:23:26.290176","NORAD_CAT_ID":"52381","OBJECT_ID":"2022-045BC","COUNTRY_CODE":"US","PERIOD":"95.440","SITE":"AFETR","GP_ID":"227276061","OBJECT_TYPE":"PAYLOAD","INCLINATION":"53.2139","REF_FRAME":"TEME","MEAN_ELEMENT_THEORY":"SGP4","RA_OF_ASC_NODE":"108.9414","TLE_LINE1":"1 52381U 22045BC  23059.84960984 -.00023636  00000-0 -14732-2 0  9990","REV_AT_EPOCH":"4913","DECAY_DATE":null,"OBJECT_NAME":"STARLINK-3803","LAUNCH_DATE":"2022-04-29","TIME_SYSTEM":"UTC","MEAN_MOTION_DOT":"-0.00023636","MEAN_MOTION":"15.08807218","SEMIMAJOR_AXIS":"6917.981","TLE_LINE2":"2 52381  53.2139 108.9414 0001183  77.0279 283.0845 15.08807218 49133","ELEMENT_SET_NO":"999"},{"EPHEMERIS_TYPE":"0","BSTAR":"-0.00013450000000","MEAN_ANOMALY":"260.3766","FILE":"3847859","ECCENTRICITY":"0.00014220","CLASSIFICATION_TYPE":"U","PERIAPSIS":"538.761","MEAN_MOTION_DDOT":"0.0000000000000","ARG_OF_PERICENTER":"99.7387","APOAPSIS":"540.729","CENTER_NAME":"EARTH","RCS_SIZE":"LARGE","TLE_LINE2":"2 52382  53.2155 108.9657 0001422  99.7387 260.3766 15.08840084 49136","ELEMENT_SET_NO":"999","MEAN_MOTION":"15.08840084","SEMIMAJOR_AXIS":"6917.880","TIME_SYSTEM":"UTC","MEAN_MOTION_DOT":"-0.00002428","LAUNCH_DATE":"2022-04-29","TLE_LINE1":"1 52382U 22045BD  23059.84592028 -.00002428  00000-0 -13450-3 0  9994","REV_AT_EPOCH":"4913","DECAY_DATE":null,"OBJECT_NAME":"STARLINK-3799","MEAN_ELEMENT_THEORY":"SGP4","REF_FRAME":"TEME","INCLINATION":"53.2155","RA_OF_ASC_NODE":"108.9657","SITE":"AFETR","PERIOD":"95.438","OBJECT_TYPE":"PAYLOAD","GP_ID":"227275572","NORAD_CAT_ID":"52382","COUNTRY_CODE":"US","OBJECT_ID":"2022-045BD","EPOCH":"2023-02-28T20:18:07.512192"}];
